#aV2006 11  8  0  0   .00000000      96 DD+AD WGS84 FIT  NGA
## 1400 259200.00000000   900.00000000 54047  .0000000000000
+   30     1  2  3  4  5  6  7  8  9 10 11 13 14 15 16 17 18
+         19 20 21 22 23 24 25 26 27 28 29 30 31  0  0  0  0
+          0  0  0  0  0  0  0  0  0  0  0  0  0  0  0  0  0
+          0  0  0  0  0  0  0  0  0  0  0  0  0  0  0  0  0
+          0  0  0  0  0  0  0  0  0  0  0  0  0  0  0  0  0
++         0  0  0  0  0  0  0  0  0  0  0  0  0  0  0  0  0
++         0  0  0  0  0  0  0  0  0  0  0  0  0  0  0  0  0
++         0  0  0  0  0  0  0  0  0  0  0  0  0  0  0  0  0
++         0  0  0  0  0  0  0  0  0  0  0  0  0  0  0  0  0
++         0  0  0  0  0  0  0  0  0  0  0  0  0  0  0  0  0
%c cc cc ccc ccc cccc cccc cccc cccc ccccc ccccc ccccc ccccc
%c cc cc ccc ccc cccc cccc cccc cccc ccccc ccccc ccccc ccccc
%f  0.0000000  0.000000000  0.00000000000  0.000000000000000
%f  0.0000000  0.000000000  0.00000000000  0.000000000000000
%i    0    0    0    0      0      0      0      0         0
%i    0    0    0    0      0      0      0      0         0
/*      NGA, ST. LOUIS,MO.                                  
/*   EPHEMERIS COMPUTED FROM  3 DAYS OF DATA                
/* CCCCCCCCCCCCCCCCCCCCCCCCCCCCCCCCCCCCCCCCCCCCCCCCCCCCCCCCC
/* CCCCCCCCCCCCCCCCCCCCCCCCCCCCCCCCCCCCCCCCCCCCCCCCCCCCCCCCC
*  2006 11  8 12 45   .00000000                                                 
P  1  12848.809371 -20399.663517  11274.810328     87.682806                    
V  1  11783.706060  -7710.734179 -27949.124562       .024333                    
P  2  -3037.427616  15122.600950  21394.654380     52.659370                    
V  2 -26524.088331  -8200.063078   1773.246403       .036554                    
P  3   6926.900686 -22094.592015 -12909.151993    379.004446                    
V  3  13383.439746  -9871.381461  24763.836008       .333677                    
P  4 -17329.855900   8194.572504  18483.241927    333.999423                    
V  4 -21800.816617  -8848.356737 -16118.699145       .044308                    
P  5  13366.841425  21173.277116   8863.596535    362.625757                    
V  5    423.059084  11970.856070 -28345.697316      -.028983                    
P  6  19345.924762    129.001097  18409.368182    557.608157                    
V  6 -15221.021649  17427.392332  15980.395974      -.125056                    
P  7  20612.539330 -16206.118580   4755.727847    499.571580                    
V  7  -1439.775038   6430.967954  30359.502311      -.073006                    
P  8 -23511.326752    701.573823 -12884.497858    -85.585523                    
V  8 -14445.471112  -6948.618841  25836.170970      -.009984                    
P  9  16031.250692  15423.236316 -15267.442223     43.743152                    
V  9 -18059.919558  -3249.972482 -22888.152574       .016035                    
P 10    376.453052  25520.598396   6636.999923     92.486166                    
V 10  -4243.197720  -7950.795379  30676.516129       .006094                    
P 11 -19253.419653 -13327.029301 -12867.596102    358.950292                    
V 11  16643.508358  -1097.106337 -23641.935892       .016830                    
P 13 -19547.683901   1504.113944  17809.754827    110.827410                    
V 13  16520.424061 -15661.250728  19395.893724       .035757                    
P 14  21279.491025 -15294.726012  -3998.925173     -1.551813                    
V 14  -2548.374261   4928.664719 -31852.060789       .009795                    
P 15  22834.195616  -1498.432445 -13976.598897     69.519778                    
V 15  15389.968561   8284.945560  24059.702607       .449850                    
P 16   2251.323513 -24351.303806  10286.223269     89.797057                    
V 16   5114.862649  12201.897725  28094.839230       .036871                    
P 17 -21277.093170  15192.811372  -4346.414243     90.297217                    
V 17   2161.456012  -5847.274261 -31167.920886      -.012092                    
P 18  15741.251273   4301.601700 -20884.577684   -252.252731                    
V 18   3998.319384  26478.814130   8097.586368      -.005568                    
P 19   -725.341297 -17402.088765 -19929.223730     32.201856                    
V 19  20661.397034 -15091.608808  12445.039408       .038318                    
P 20 -13520.292762 -19069.424189  12552.989687    -21.854948                    
V 20  -1234.548020 -16217.931536 -25753.472558       .000834                    
P 21  25699.262204   4125.513274  -6498.956299     60.544258                    
V 21   6840.222437   5428.641033  29531.901800       .015291                    
P 22  12893.117542 -10763.256511 -20407.193438    147.851742                    
V 22   5364.259709  25781.911801 -10149.681143       .028283                    
P 23 -12341.539996  -8885.413522  21707.622335    140.040815                    
V 23  20313.645826 -18856.693719   3628.424121       .007051                    
P 24 -10053.068917  12371.890909  21511.239938     50.705912                    
V 24 -24926.832107  -9737.578114  -5816.614605       .030949                    
P 25  10725.327156 -12864.835476  21046.146319    401.894261                    
V 25  25060.270216   6149.095518  -9036.097091       .061353                    
P 26    581.458069  17169.005685 -20490.678112   -327.246905                    
V 26 -19733.067031  15711.382605  13417.406512      -.161451                    
P 27 -26102.182999  -5012.560127  -2125.128311     76.965952                    
V 27  -2691.213931  -3346.502393  31421.368587       .019823                    
P 28 -14031.185411   6117.053312 -21375.932224     14.754436                    
V 28  -5957.000825 -27256.697853  -4180.078516      -.009213                    
P 29  -3896.912177  19262.573138 -17482.032713    177.886339                    
V 29 -17671.247368  14342.510449  19791.899330       .479855                    
P 30  16159.525720  10584.050347  17974.320729     15.771460                    
V 30   4106.652168  23156.784314 -16930.304125       .011201                    
P 31  13047.225102 -11004.504971  20549.316444    -50.084574                    
V 31  24218.004678   8532.176384 -10869.727110       .106868                    
EOF
